[{"OBJECT_NAME":"RAVAN","OBJECT_ID":"2016-067B","EPOCH":"2026-03-09T15:26:34.287360","MEAN_MOTION":15.46151325,"ECCENTRICITY":0.0006137,"INCLINATION":98.0039,"RA_OF_ASC_NODE":307.3532,"ARG_OF_PERICENTER":6.7222,"MEAN_ANOMALY":353.4107,"EPHEMERIS_TYPE":0,"CLASSIFICATION_TYPE":"U","NORAD_CAT_ID":41849,"ELEMENT_SET_NO":999,"REV_AT_EPOCH":51227,"BSTAR":0.00076908,"MEAN_MOTION_DOT":0.00037768,"MEAN_MOTION_DDOT":0},{"OBJECT_NAME":"STARLINK-1567","OBJECT_ID":"2020-055M","EPOCH":"2026-03-10T00:00:02.999808","MEAN_MOTION":15.18253947,"ECCENTRICITY":0.00014476,"INCLINATION":53.0874,"RA_OF_ASC_NODE":124.961,"ARG_OF_PERICENTER":74.8938,"MEAN_ANOMALY":22.5266,"EPHEMERIS_TYPE":0,"CLASSIFICATION_TYPE":"U","NORAD_CAT_ID":46038,"ELEMENT_SET_NO":999,"REV_AT_EPOCH":579,"BSTAR":0.068265395,"MEAN_MOTION_DOT":0.01557947,"MEAN_MOTION_DDOT":0}]
